HAIYANG-1B
1 31113U 07010A   18094.45861024 -.00000001  00000-0  16001-4 0  9993
2 31113  98.5155 149.0929 0015123  69.2037 291.0767 14.30193773573103
